[{"OBJECT_NAME":"IXPE","OBJECT_ID":"2021-121A","EPOCH":"2026-03-10T00:00:02.999808","MEAN_MOTION":15.09223379,"ECCENTRICITY":0.00072712,"INCLINATION":0.2307,"RA_OF_ASC_NODE":347.0223,"ARG_OF_PERICENTER":20.3591,"MEAN_ANOMALY":57.9535,"EPHEMERIS_TYPE":0,"CLASSIFICATION_TYPE":"U","NORAD_CAT_ID":49954,"ELEMENT_SET_NO":999,"REV_AT_EPOCH":584,"BSTAR":0.0008624183,"MEAN_MOTION_DOT":0.00015078,"MEAN_MOTION_DDOT":0},{"OBJECT_NAME":"STARLINK-4495","OBJECT_ID":"2022-101AB","EPOCH":"2026-03-09T06:27:18.317664","MEAN_MOTION":15.08834588,"ECCENTRICITY":0.00014005,"INCLINATION":53.2191,"RA_OF_ASC_NODE":66.0096,"ARG_OF_PERICENTER":88.2328,"MEAN_ANOMALY":271.8825,"EPHEMERIS_TYPE":0,"CLASSIFICATION_TYPE":"U","NORAD_CAT_ID":53552,"ELEMENT_SET_NO":999,"REV_AT_EPOCH":19689,"BSTAR":5.4796201e-5,"MEAN_MOTION_DOT":5.84e-6,"MEAN_MOTION_DDOT":0}]
